CCSDS_OMM_VERS,COMMENT,CREATION_DATE,ORIGINATOR,OBJECT_NAME,OBJECT_ID,CENTER_NAME,REF_FRAME,TIME_SYSTEM,MEAN_ELEMENT_THEORY,EPOCH,MEAN_MOTION,ECCENTRICITY,INCLINATION,RA_OF_ASC_NODE,ARG_OF_PERICENTER,MEAN_ANOMALY,EPHEMERIS_TYPE,CLASSIFICATION_TYPE,NORAD_CAT_ID,ELEMENT_SET_NO,REV_AT_EPOCH,BSTAR,MEAN_MOTION_DOT,MEAN_MOTION_DDOT,SEMIMAJOR_AXIS,PERIOD,APOAPSIS,PERIAPSIS,OBJECT_TYPE,RCS_SIZE,COUNTRY_CODE,LAUNCH_DATE,SITE,DECAY_DATE,FILE,GP_ID,TLE_LINE0,TLE_LINE1,TLE_LINE2
"3.0","GENERATED VIA SPACE-TRACK.ORG API","2025-03-25T23:06:24","18 SPCS","CZ-6A DEB","2024-140UR","EARTH","TEME","UTC","SGP4","2025-03-25T15:05:45.524832","15.95631903","0.00204010","89.2593","330.8525","224.5359","135.4289","0","U","61328","999","3033","0.03328300000000","0.09232470","0.1975000000000","6664.691","90.246","300.153","272.960","DEBRIS","SMALL","PRC","2024-08-06","TSC","2025-03-29","4680628","284024483","0 CZ-6A DEB","1 61328U 24140UR  25084.62899913  .09232470  19750+0  33283-1 0  9995","2 61328  89.2593 330.8525 0020401 224.5359 135.4289 15.95631903 30334"
"3.0","GENERATED VIA SPACE-TRACK.ORG API","2025-03-26T02:56:27","18 SPCS","FENGYUN 1C DEB","1999-025CJN","EARTH","TEME","UTC","SGP4","2025-03-25T15:32:07.914912","16.02244882","0.00201080","96.6773","52.6466","183.8692","176.2437","0","U","31848","999","95268","0.00821780000000","0.03738800","0.0246440000000","6646.340","89.874","281.570","254.841","DEBRIS","SMALL","PRC","1999-05-10","TSC","2025-03-29","4680658","284035619","0 FENGYUN 1C DEB","1 31848U 99025CJN 25084.64731383  .03738800  24644-1  82178-2 0  9991","2 31848  96.6773  52.6466 0020108 183.8692 176.2437 16.02244882952688"
"3.0","GENERATED VIA SPACE-TRACK.ORG API","2025-03-25T20:26:15","18 SPCS","STARLINK-1032","2019-074AA","EARTH","TEME","UTC","SGP4","2025-03-25T17:09:24.774912","16.38108285","0.00049970","53.0302","272.0337","292.5814","165.3940","0","U","44737","999","29689","0.00088542000000","0.09721750","0.0000123420000","6548.977","87.906","174.114","167.569","PAYLOAD","LARGE","US","2019-11-11","AFETR","2025-03-26","4680304","284017363","0 STARLINK-1032","1 44737U 19074AA  25084.71487008  .09721750  12342-4  88542-3 0  9997","2 44737  53.0302 272.0337 0004997 292.5814 165.3940 16.38108285296898"
"3.0","GENERATED VIA SPACE-TRACK.ORG API","2025-03-25T18:46:33","18 SPCS","STARLINK-30475","2023-147S","EARTH","TEME","UTC","SGP4","2025-03-25T17:17:27.127968","16.27746395","0.00152100","42.9769","334.9994","241.1782","177.6512","0","U","57929","999","8504","0.00621680000000","0.24991881","0.0000089410000","6576.740","88.466","208.608","188.602","PAYLOAD","LARGE","US","2023-09-24","AFETR","2025-03-26","4680301","284017324","0 STARLINK-30475","1 57929U 23147S   25084.72045287  .24991881  89410-5  62168-2 0  9997","2 57929  42.9769 334.9994 0015210 241.1782 177.6512 16.27746395 85042"
"3.0","GENERATED VIA SPACE-TRACK.ORG API","2025-03-25T21:36:16","18 SPCS","STARLINK-1932","2020-074AH","EARTH","TEME","UTC","SGP4","2025-03-25T20:30:40.338720","16.43948716","0.00072760","53.0262","48.9915","173.7168","275.2962","0","U","46770","999","24465","0.00113930000000","0.32426334","0.0000123540000","6533.456","87.594","160.075","150.568","PAYLOAD","LARGE","US","2020-10-24","AFETR","2025-03-26","4680306","284017365","0 STARLINK-1932","1 46770U 20074AH  25084.85463355  .32426334  12354-4  11393-2 0  9990","2 46770  53.0262  48.9915 0007276 173.7168 275.2962 16.43948716244658"
"3.0","GENERATED VIA SPACE-TRACK.ORG API","2025-03-26T20:56:00","18 SPCS","ERS 1 DEB","1991-050U","EARTH","TEME","UTC","SGP4","2025-03-26T12:16:14.489184","15.86893850","0.00090720","98.6051","111.7383","211.7712","148.3009","0","U","48172","999","21361","0.02964000000000","0.09702695","0.0000000000000","6689.134","90.743","317.068","304.931","DEBRIS","SMALL","ESA","1991-07-17","FRGUI","2025-03-29","4681382","284092273","0 ERS 1 DEB","1 48172U 91050U   25085.51127881  .09702695  00000-0  29640-1 0  9990","2 48172  98.6051 111.7383 0009072 211.7712 148.3009 15.86893850213617"
"3.0","GENERATED VIA SPACE-TRACK.ORG API","2025-03-26T15:06:18","18 SPCS","STARLINK-1581","2020-055R","EARTH","TEME","UTC","SGP4","2025-03-26T13:07:01.678944","16.32901481","0.00110610","53.0365","211.8566","325.0063","134.0647","0","U","46042","999","25643","0.00340360000000","0.21643277","0.0000123200000","6562.891","88.187","192.015","177.497","PAYLOAD","LARGE","US","2020-08-07","AFETR","2025-03-26","4681330","284072622","0 STARLINK-1581","1 46042U 20055R   25085.54654721  .21643277  12320-4  34036-2 0  9994","2 46042  53.0365 211.8566 0011061 325.0063 134.0647 16.32901481256437"
"3.0","GENERATED VIA SPACE-TRACK.ORG API","2025-03-27T20:14:59","18 SPCS","CZ-6A DEB","2024-140RK","EARTH","TEME","UTC","SGP4","2025-03-27T03:00:30.093984","15.47277191","0.00336540","89.2622","330.6741","237.9226","121.8765","0","U","61165","999","3228","0.03144800000000","0.01834044","0.0000000000000","6802.832","93.067","447.591","401.803","DEBRIS","SMALL","PRC","2024-08-06","TSC","2025-04-04","4682083","284178966","0 CZ-6A DEB","1 61165U 24140RK  25086.12534831  .01834044  00000-0  31448-1 0  9993","2 61165  89.2622 330.6741 0033654 237.9226 121.8765 15.47277191 32285"
"3.0","GENERATED VIA SPACE-TRACK.ORG API","2025-03-27T20:14:59","18 SPCS","STARLINK-2709","2021-044AC","EARTH","TEME","UTC","SGP4","2025-03-27T11:26:53.452320","16.45047046","0.00086330","53.0312","210.3871","292.3392","112.9648","0","U","48664","999","21269","0.00045711000000","0.17109421","0.0000125580000","6530.548","87.535","158.051","146.775","PAYLOAD","LARGE","US","2021-05-26","AFETR","2025-03-27","4682083","284169715","0 STARLINK-2709","1 48664U 21044AC  25086.47700755  .17109421  12558-4  45711-3 0  9996","2 48664  53.0312 210.3871 0008633 292.3392 112.9648 16.45047046212694"
"3.0","GENERATED VIA SPACE-TRACK.ORG API","2025-03-27T13:46:16","18 SPCS","STARLINK-2693","2021-040AK","EARTH","TEME","UTC","SGP4","2025-03-27T12:20:12.072768","16.32316456","0.00058010","53.0315","259.0882","288.2618","173.3406","0","U","48461","999","21615","0.00124420000000","0.07329844","0.0000121750000","6564.459","88.218","190.132","182.516","PAYLOAD","LARGE","US","2021-05-09","AFETR","2025-03-27","4681995","284146832","0 STARLINK-2693","1 48461U 21040AK  25086.51402862  .07329844  12175-4  12442-2 0  9991","2 48461  53.0315 259.0882 0005801 288.2618 173.3406 16.32316456216151"
"3.0","GENERATED VIA SPACE-TRACK.ORG API","2025-03-29T02:24:46","18 SPCS","INTELSAT 29E DEB","2016-004E","EARTH","TEME","UTC","SGP4","2025-03-27T12:33:52.407072","1.00540659","0.06230600","5.4043","75.8258","307.4539","47.2101","0","U","62723","999","806","0.00000000000000","0.00000010","0.0000000000000","42089.525","1432.256","38333.820","33088.960","DEBRIS","","ITSO","2016-01-27","FRGUI","","4683631","284304227","0 INTELSAT 29E DEB","1 62723U 16004E   25086.52352323  .00000010  00000-0  00000-0 0  9998","2 62723   5.4043  75.8258 0623060 307.4539  47.2101  1.00540659  8060"
"3.0","GENERATED VIA SPACE-TRACK.ORG API","2025-03-27T23:56:16","18 SPCS","STARLINK-3905","2022-049AW","EARTH","TEME","UTC","SGP4","2025-03-27T13:42:25.742592","16.24418437","0.00056170","53.2057","148.3026","350.3032","119.9860","0","U","52495","999","16041","0.00451410000000","0.12861501","0.0000120150000","6585.720","88.647","211.284","203.885","PAYLOAD","LARGE","US","2022-05-06","AFETR","2025-03-28","4682606","284191179","0 STARLINK-3905","1 52495U 22049AW  25086.57113128  .12861501  12015-4  45141-2 0  9995","2 52495  53.2057 148.3026 0005617 350.3032 119.9860 16.24418437160414"
"3.0","GENERATED VIA SPACE-TRACK.ORG API","2025-03-27T21:56:17","18 SPCS","STARLINK-5314","2023-021BC","EARTH","TEME","UTC","SGP4","2025-03-27T16:08:41.025120","16.35391708","0.00166340","69.9923","303.8869","305.7177","137.1016","0","U","55678","999","11738","0.00077082000000","0.06203762","0.0000043774000","6556.227","88.052","188.998","167.186","PAYLOAD","LARGE","US","2023-02-17","AFWTR","2025-03-28","4682498","284188889","0 STARLINK-5314","1 55678U 23021BC  25086.67269705  .06203762  43774-5  77082-3 0  9995","2 55678  69.9923 303.8869 0016634 305.7177 137.1016 16.35391708117380"
"3.0","GENERATED VIA SPACE-TRACK.ORG API","2025-03-29T02:24:46","18 SPCS","M2-B","2021-023J","EARTH","TEME","UTC","SGP4","2025-03-28T11:33:44.163360","16.27402346","0.00065160","44.9582","134.0997","26.4255","333.6997","0","U","47973","999","19698","0.00170650000000","0.06433898","0.0000103270000","6577.667","88.485","203.818","195.246","PAYLOAD","MEDIUM","AUS","2021-03-22","RLLC","2025-04-01","4683631","284293538","0 M2-B","1 47973U 21023J   25087.48176115  .06433898  10327-4  17065-2 0  9992","2 47973  44.9582 134.0997 0006516  26.4255 333.6997 16.27402346196987"
"3.0","GENERATED VIA SPACE-TRACK.ORG API","2025-03-28T19:06:17","18 SPCS","HAIWANGXING 01 (NEPTUNE)","2024-085A","EARTH","TEME","UTC","SGP4","2025-03-28T18:04:56.295840","16.45520891","0.00115040","97.3281","172.1165","275.3276","181.9815","0","U","59677","999","5013","0.00069315000000","0.29817615","0.0000025160000","6529.294","87.510","158.671","143.648","PAYLOAD","LARGE","PRC","2024-05-07","TSC","2025-03-28","4683254","284236284","0 HAIWANGXING 01 (NEPTUNE)","1 59677U 24085A   25087.75342935  .29817615  25160-5  69315-3 0  9998","2 59677  97.3281 172.1165 0011504 275.3276 181.9815 16.45520891 50135"
"3.0","GENERATED VIA SPACE-TRACK.ORG API","2025-03-28T23:36:16","18 SPCS","CAPELLA-9 (WHITNEY)","2023-035C","EARTH","TEME","UTC","SGP4","2025-03-28T20:29:35.556000","16.29710962","0.00144450","43.9596","253.9299","305.9146","207.0555","0","U","55910","999","11231","0.00396730000000","0.19083370","0.0000098524000","6571.454","88.359","202.811","183.826","PAYLOAD","LARGE","US","2023-03-16","WLPIS","2025-03-29","4683626","284274876","0 CAPELLA-9 (WHITNEY)","1 55910U 23035C   25087.85388375  .19083370  98524-5  39673-2 0  9996","2 55910  43.9596 253.9299 0014445 305.9146 207.0555 16.29710962112318"
